OBJECT_NAME,OBJECT_ID,EPOCH,MEAN_MOTION,ECCENTRICITY,INCLINATION,RA_OF_ASC_NODE,ARG_OF_PERICENTER,MEAN_ANOMALY,EPHEMERIS_TYPE,CLASSIFICATION_TYPE,NORAD_CAT_ID,ELEMENT_SET_NO,REV_AT_EPOCH,BSTAR,MEAN_MOTION_DOT,MEAN_MOTION_DDOT
SL-12 R/B(2),1985-042D,2026-06-14T11:30:05.192064,14.22005398,.0036186,71.1080,243.2375,331.8606,38.8781,0,U,15772,999,12815,.60124E-4,.86E-6,0
SL-14 R/B,1985-069B,2026-06-14T13:03:19.815840,14.86513699,.0017609,82.5268,293.8518,228.4427,131.5280,0,U,15945,999,18722,.41448E-4,.392E-5,0
SL-16 R/B,1985-097B,2026-06-14T12:22:01.810272,14.16610671,.0005433,71.0035,296.7033,117.1169,312.0711,0,U,16182,999,10094,-.96256E-4,-.24E-5,0
SL-14 R/B,1986-006B,2026-06-14T11:51:56.216160,14.86943238,.0075122,82.5262,168.6474,312.5636,46.9255,0,U,16496,999,16359,.53219E-4,.526E-5,0
COSMOS 1743,1986-034A,2026-06-14T12:40:42.979008,15.66731305,.0003782,82.5270,331.5587,283.6449,76.4390,0,U,16719,999,19537,.43898E-3,.46322E-3,0
SL-14 R/B,1986-046B,2026-06-14T12:37:42.325248,14.85669443,.0021569,82.4815,348.6902,267.8742,92.0004,0,U,16792,999,14078,.38034E-4,.355E-5,0
SL-14 R/B,1986-055B,2026-06-14T09:42:47.770848,14.85721393,.001932,82.5205,35.7490,16.7592,155.9479,0,U,16882,999,13372,.38854E-4,.363E-5,0
AJISAI (EGS),1986-061A,2026-06-14T12:00:18.339264,12.44516835,.0011228,50.0065,155.6574,173.7674,322.3277,0,U,16908,999,48005,-.17218E-4,-.1E-5,0
SL-14 R/B,1987-024B,2026-06-14T12:35:09.919104,14.86211615,.0016912,82.5280,1.7537,302.7924,57.1663,0,U,17567,999,10251,.35555E-4,.337E-5,0
COSMOS 1833,1987-027A,2026-06-14T06:38:27.375072,14.13047816,.0022722,70.9173,122.9858,59.9759,300.3612,0,U,17589,999,2396,.19167E-3,.311E-5,0
SL-16 R/B,1987-027B,2026-06-14T12:48:50.864256,14.17172454,.0006425,71.0033,72.4197,315.2728,44.7877,0,U,17590,999,2906,-.62073E-4,-.173E-5,0
SL-14 R/B,1987-038B,2026-06-14T12:02:35.812896,14.85443722,.0018648,82.5010,205.6017,200.2454,159.8025,0,U,17912,999,9360,.3275E-4,.307E-5,0
COSMOS 1844,1987-041A,2026-06-14T11:46:36.980256,14.14568524,.0033025,70.8973,189.9954,239.4615,120.3246,0,U,17973,999,1727,-.6225E-4,-.169E-5,0
SL-14 R/B,1987-055B,2026-06-14T12:41:57.105024,14.85709474,.0021858,82.4995,257.7346,56.0009,304.3279,0,U,18153,999,8431,.39559E-4,.369E-5,0
COSMOS 1867,1987-060A,2026-06-14T08:07:51.398112,14.31515512,.0016461,65.0116,36.0359,282.1365,77.7875,0,U,18187,999,3377,.25177E-4,-.33E-6,0
SL-14 R/B,1988-001B,2026-06-14T12:44:34.173312,14.85607908,.0016469,82.5131,104.2725,279.1872,80.7481,0,U,18749,999,5640,.38424E-4,.357E-5,0
COSMOS 1933,1988-020A,2026-06-14T11:13:46.750080,15.18696631,.0003162,82.5116,155.1277,195.8620,164.2515,0,U,18958,999,6491,.1523E-3,.3189E-4,0
SL-3 R/B,1988-032B,2026-06-14T11:30:46.962144,15.20822523,.0023719,97.5248,148.5232,255.1407,104.7201,0,U,19046,999,6681,.16851E-3,.3672E-4,0
SL-16 R/B,1988-039B,2026-06-14T12:19:48.707616,14.19629443,.0022425,71.0140,223.8113,197.1155,162.9217,0,U,19120,999,97212,-.27783E-4,-.107E-5,0
COSMOS 1953,1988-050A,2026-06-14T04:57:13.074048,15.29940356,.00119399,82.5086,61.0402,135.3677,224.8527,0,U,19210,999,5253,.25486628E-3,.7434E-4,0
SL-8 R/B,1988-053B,2026-06-14T12:06:26.951040,14.38966515,.0019161,74.0479,294.0024,90.3399,339.5942,0,U,19257,999,99052,.55319E-4,.145E-5,0
COSMOS 1975,1988-093A,2026-06-14T08:10:45.050016,15.29294232,.0011049,82.5194,20.5658,181.3660,178.7552,0,U,19573,999,3417,.25062E-3,.7165E-4,0
SL-14 R/B,1988-093B,2026-06-14T12:18:28.543104,14.85740044,.0022153,82.5309,311.1557,78.6915,349.9394,0,U,19574,999,1539,.42112E-4,.392E-5,0
SL-16 R/B,1988-102B,2026-06-14T11:05:52.238688,14.16165027,.001593,71.0001,307.8727,229.2059,130.7683,0,U,19650,999,94059,-.9988E-4,-.246E-5,0
INTERCOSMOS 24,1989-080A,2026-06-14T09:29:37.610016,12.59657738,.1188388,82.6067,41.4614,68.3768,303.9566,0,U,20261,999,67897,.23973E-3,.845E-5,0
SL-14 R/B,1989-080C,2026-06-14T12:32:16.790784,12.50569343,.1228889,82.5930,111.0196,323.5002,28.8066,0,U,20262,999,67225,.86883E-4,.291E-5,0
DELTA 1 R/B,1989-089B,2026-06-14T12:42:14.264064,14.50729903,.0069029,97.0636,357.5129,175.3448,184.8407,0,U,20323,999,90977,.81852E-4,.297E-5,0
ARIANE 40 R/B,1990-005H,2026-06-14T09:41:57.363360,14.39925963,.00088,98.2961,223.1066,273.9936,86.0247,0,U,20443,999,90672,.79902E-4,.209E-5,0
DELTA 2 R/B(1),1990-008B,2026-06-13T22:40:16.120128,15.68352967,.0065605,35.6001,257.3443,83.4720,277.3483,0,U,20453,999,94119,.60673E-3,.80584E-3,0
COSMOS 2058,1990-010A,2026-06-14T11:43:09.960672,15.11996158,.0009535,82.4670,312.0161,10.5226,349.6202,0,U,20465,999,95686,.21964E-3,.3801E-4,0
SL-14 R/B,1990-010B,2026-06-14T11:17:00.491712,14.83644665,.0019323,82.5017,176.4966,345.4970,14.5688,0,U,20466,999,94283,.3707E-4,.33E-5,0
