SL-12 R/B(2)            
1 15772U 85042D   26165.47922676  .00000086  00000+0  60124-4 0  9994
2 15772  71.1080 243.2375 0036186 331.8606  38.8781 14.22005398128154
SL-14 R/B               
1 15945U 85069B   26165.54397935  .00000392  00000+0  41448-4 0  9995
2 15945  82.5268 293.8518 0017609 228.4427 131.5280 14.86513699187227
SL-16 R/B               
1 16182U 85097B   26165.51529873 -.00000240  00000+0 -96256-4 0  9996
2 16182  71.0035 296.7033 0005433 117.1169 312.0711 14.16610671100949
SL-14 R/B               
1 16496U 86006B   26165.49440065  .00000526  00000+0  53219-4 0  9994
2 16496  82.5262 168.6474 0075122 312.5636  46.9255 14.86943238163595
COSMOS 1743             
1 16719U 86034A   26165.52827522  .00046322  00000+0  43898-3 0  9999
2 16719  82.5270 331.5587 0003782 283.6449  76.4390 15.66731305195379
SL-14 R/B               
1 16792U 86046B   26165.52618432  .00000355  00000+0  38034-4 0  9994
2 16792  82.4815 348.6902 0021569 267.8742  92.0004 14.85669443140781
SL-14 R/B               
1 16882U 86055B   26165.40471957  .00000363  00000+0  38854-4 0  9999
2 16882  82.5205  35.7490 0019320  16.7592 155.9479 14.85721393133721
AJISAI (EGS)            
1 16908U 86061A   26165.50021226 -.00000100  00000+0 -17218-4 0  9998
2 16908  50.0065 155.6574 0011228 173.7674 322.3277 12.44516835480056
SL-14 R/B               
1 17567U 87024B   26165.52442036  .00000337  00000+0  35555-4 0  9992
2 17567  82.5280   1.7537 0016912 302.7924  57.1663 14.86211615102514
COSMOS 1833             
1 17589U 87027A   26165.27670573  .00000311  00000+0  19167-3 0  9992
2 17589  70.9173 122.9858 0022722  59.9759 300.3612 14.13047816 23963
SL-16 R/B               
1 17590U 87027B   26165.53392204 -.00000173  00000+0 -62073-4 0  9998
2 17590  71.0033  72.4197 0006425 315.2728  44.7877 14.17172454 29063
SL-14 R/B               
1 17912U 87038B   26165.50180339  .00000307  00000+0  32750-4 0  9995
2 17912  82.5010 205.6017 0018648 200.2454 159.8025 14.85443722 93601
COSMOS 1844             
1 17973U 87041A   26165.49070579 -.00000169  00000+0 -62250-4 0  9994
2 17973  70.8973 189.9954 0033025 239.4615 120.3246 14.14568524 17276
SL-14 R/B               
1 18153U 87055B   26165.52913316  .00000369  00000+0  39559-4 0  9995
2 18153  82.4995 257.7346 0021858  56.0009 304.3279 14.85709474 84318
COSMOS 1867             
1 18187U 87060A   26165.33878933 -.00000033  00000+0  25177-4 0  9992
2 18187  65.0116  36.0359 0016461 282.1365  77.7875 14.31515512 33776
SL-14 R/B               
1 18749U 88001B   26165.53095108  .00000357  00000+0  38424-4 0  9996
2 18749  82.5131 104.2725 0016469 279.1872  80.7481 14.85607908 56405
COSMOS 1933             
1 18958U 88020A   26165.46790220  .00003189  00000+0  15230-3 0  9993
2 18958  82.5116 155.1277 0003162 195.8620 164.2515 15.18696631 64917
SL-3 R/B                
1 19046U 88032B   26165.47971021  .00003672  00000+0  16851-3 0  9993
2 19046  97.5248 148.5232 0023719 255.1407 104.7201 15.20822523 66814
SL-16 R/B               
1 19120U 88039B   26165.51375819 -.00000107  00000+0 -27783-4 0  9990
2 19120  71.0140 223.8113 0022425 197.1155 162.9217 14.19629443972124
COSMOS 1953             
1 19210U 88050A   26165.20640132  .00007434  00000+0  25487-3 0  9998
2 19210  82.5086  61.0402 0011939 135.3677 224.8527 15.29940356 52531
SL-8 R/B                
1 19257U 88053B   26165.50447860  .00000145  00000+0  55319-4 0  9998
2 19257  74.0479 294.0024 0019161  90.3399 339.5942 14.38966515990527
COSMOS 1975             
1 19573U 88093A   26165.34079919  .00007165  00000+0  25062-3 0  9991
2 19573  82.5194  20.5658 0011049 181.3660 178.7552 15.29294232 34171
SL-14 R/B               
1 19574U 88093B   26165.51283036  .00000392  00000+0  42112-4 0  9999
2 19574  82.5309 311.1557 0022153  78.6915 349.9394 14.85740044 15393
SL-16 R/B               
1 19650U 88102B   26165.46241017 -.00000246  00000+0 -99880-4 0  9996
2 19650  71.0001 307.8727 0015930 229.2059 130.7683 14.16165027940591
INTERCOSMOS 24          
1 20261U 89080A   26165.39557419  .00000845  00000+0  23973-3 0  9992
2 20261  82.6067  41.4614 1188388  68.3768 303.9566 12.59657738678979
SL-14 R/B               
1 20262U 89080C   26165.52241656  .00000291  00000+0  86883-4 0  9996
2 20262  82.5930 111.0196 1228889 323.5002  28.8066 12.50569343672253
DELTA 1 R/B             
1 20323U 89089B   26165.52933176  .00000297  00000+0  81852-4 0  9995
2 20323  97.0636 357.5129 0069029 175.3448 184.8407 14.50729903909777
ARIANE 40 R/B           
1 20443U 90005H   26165.40413615  .00000209  00000+0  79902-4 0  9992
2 20443  98.2961 223.1066 0008800 273.9936  86.0247 14.39925963906727
DELTA 2 R/B(1)          
1 20453U 90008B   26164.94463102  .00080584  00000+0  60673-3 0  9998
2 20453  35.6001 257.3443 0065605  83.4720 277.3483 15.68352967941195
COSMOS 2058             
1 20465U 90010A   26165.48830973  .00003801  00000+0  21964-3 0  9995
2 20465  82.4670 312.0161 0009535  10.5226 349.6202 15.11996158956864
SL-14 R/B               
1 20466U 90010B   26165.47014458  .00000330  00000+0  37070-4 0  9997
2 20466  82.5017 176.4966 0019323 345.4970  14.5688 14.83644665942837
